{
  "norad_id": 57911,
  "name": "STARLINK-30478",
  "history": [
    {
      "epoch": "2026-03-28T15:58:07.069440",
      "apogee_km": 486.68940514812675,
      "perigee_km": 484.34052617243924,
      "latitude_deg": -2.728076243928219,
      "longitude_deg": 34.97452159994282,
      "semi_major_axis_km": 6863.651965660283,
      "eccentricity": 0.00017111,
      "inclination_deg": 43.0018,
      "raan_deg": 206.5718,
      "arg_perigee_deg": 270.9693,
      "mean_anomaly_deg": 89.0963,
      "mean_motion_rev_day": 15.26756865
    }
  ]
}